OBJECT_NAME,OBJECT_ID,EPOCH,MEAN_MOTION,ECCENTRICITY,INCLINATION,RA_OF_ASC_NODE,ARG_OF_PERICENTER,MEAN_ANOMALY,EPHEMERIS_TYPE,CLASSIFICATION_TYPE,NORAD_CAT_ID,ELEMENT_SET_NO,REV_AT_EPOCH,BSTAR,MEAN_MOTION_DOT,MEAN_MOTION_DDOT
SL-14 R/B,1990-018B,2026-06-08T00:47:11.910336,14.82210433,.001687,82.5203,138.6641,150.0480,210.1703,0,U,20511,999,93596,.51159E-4,.432E-5,0
HST,1990-037B,2026-06-07T07:09:32.201568,15.30642118,.0001938,28.4712,148.1547,44.7656,315.3096,0,U,20580,999,78705,.18954E-3,.601E-4,0
SL-16 R/B,1990-046B,2026-06-08T02:40:55.797888,14.15021428,.0014069,70.9982,108.0076,175.4568,184.6685,0,U,20625,999,86118,.1831E-3,.307E-5,0
SL-8 R/B,1990-078B,2026-06-08T01:48:12.229920,14.91976988,.0352831,82.9015,169.8750,69.1271,294.7345,0,U,20775,999,82276,.47563E-3,.16899E-3,0
SL-8 R/B,1991-006B,2026-06-08T02:51:20.371392,13.77505208,.0023284,82.9419,102.7794,138.7781,232.3484,0,U,21088,999,77652,.33177E-4,.49E-6,0
OKEAN-3,1991-039A,2026-06-07T23:10:00.236064,15.05287367,.0014615,82.5162,249.3236,30.1755,330.0311,0,U,21397,999,87861,.17012E-3,.2465E-4,0
COSMOS 2151,1991-042A,2026-06-08T02:57:35.241120,15.00412803,.001372,82.4962,356.4290,111.0853,249.1840,0,U,21422,999,87675,.10952E-3,.1406E-4,0
SL-14 R/B,1991-042B,2026-06-08T04:08:18.550752,14.81896790,.0015723,82.4922,135.3494,307.3054,52.6726,0,U,21423,999,86647,.48439E-4,.407E-5,0
ERS-1,1991-050A,2026-06-08T01:25:24.949056,14.39511565,.0030799,98.7799,179.5343,295.1450,64.6543,0,U,21574,999,82873,.10642E-3,.287E-5,0
ARIANE 40 R/B,1991-050F,2026-06-08T02:29:28.732992,14.42952012,.0003852,98.1879,207.8742,141.2771,218.8696,0,U,21610,999,83203,.10826E-3,.321E-5,0
INTERCOSMOS 25,1991-086A,2026-06-07T22:48:42.166656,12.12185586,.1484364,82.6055,255.3989,282.3374,61.5916,0,U,21819,999,50762,.13079E-3,.657E-5,0
SL-8 R/B,1992-008B,2026-06-08T04:20:57.706944,13.75974401,.0033381,82.9268,200.4835,240.6443,178.1787,0,U,21876,999,72186,.52791E-4,.66E-6,0
SL-8 R/B,1992-020B,2026-06-08T02:19:56.181792,13.75547985,.0030216,82.9304,86.6088,47.1939,324.6705,0,U,21938,999,71356,.46084E-4,.6E-6,0
USA 81,1992-023A,2026-06-08T02:58:05.413728,14.32395794,.0002733,85.0077,79.2381,92.7568,267.3938,0,U,21949,999,10773,.58715E-4,.179E-5,0
COSMOS 2219,1992-076A,2026-06-08T03:16:07.177152,14.14095576,.0016171,71.0576,188.9935,58.9197,301.3510,0,U,22219,999,73116,.8615E-5,-.31E-6,0
SL-16 R/B,1992-076B,2026-06-08T00:04:39.515232,14.16872143,.001445,71.0007,358.1286,310.6399,161.6193,0,U,22220,999,73462,-.76975E-4,-.203E-5,0
COSMOS 2221,1992-080A,2026-06-08T02:41:55.934880,14.96511725,.0012672,82.5034,192.4589,245.6547,114.3353,0,U,22236,999,79431,.13681E-3,.1582E-4,0
SL-16 R/B,1992-093B,2026-06-08T03:01:33.996288,14.15464855,.0004457,71.0201,174.4134,201.2170,158.8769,0,U,22285,999,72595,-.36296E-4,-.118E-5,0
COSMOS 2228,1992-094A,2026-06-08T03:13:21.986400,14.97554685,.0017781,82.5170,150.7142,3.4683,356.6659,0,U,22286,999,78959,.18448E-3,.2185E-4,0
SL-16 R/B,1993-016B,2026-06-08T00:49:42.680928,14.15308871,.0010835,71.0079,25.4318,196.7781,163.2985,0,U,22566,999,71495,.6983E-4,.88E-6,0
COSMOS 2242,1993-024A,2026-06-08T03:45:18.105120,14.96876951,.0016257,82.5179,180.1828,7.2600,352.8854,0,U,22626,999,79392,.14324E-3,.1673E-4,0
SL-16 R/B,1993-059B,2026-06-08T04:09:33.488064,14.17244383,.0014994,70.9883,180.3126,69.7255,290.5479,0,U,22803,999,69235,.12578E-3,.206E-5,0
COSMOS 2278,1994-023A,2026-06-07T21:52:34.272192,14.14392657,.0010603,71.0541,346.3332,253.7139,106.2817,0,U,23087,999,65756,.22703E-3,.388E-5,0
SL-16 R/B,1994-023B,2026-06-07T22:01:02.999712,14.15019357,.0003357,70.9995,241.3984,196.3267,163.7748,0,U,23088,999,65885,.11707E-3,.179E-5,0
SL-16 R/B,1994-074B,2026-06-08T02:02:24.102816,14.79494909,.0005181,97.6994,186.1848,291.9630,131.0433,0,U,23343,999,70061,.68745E-4,.465E-5,0
SL-16 R/B,1994-077B,2026-06-08T03:30:50.766624,14.15573467,.0002627,70.9805,162.1829,332.7841,27.3144,0,U,23405,999,62903,-.12156E-3,-.286E-5,0
ARIANE 40+ R/B,1995-021B,2026-06-08T03:47:17.650752,14.39828487,.0005887,98.4411,229.3630,222.8274,190.9169,0,U,23561,999,63226,.96555E-4,.26E-5,0
SL-16 R/B,1995-058B,2026-06-07T22:41:55.461120,14.15505213,.0013394,71.0215,350.7622,332.9630,27.0794,0,U,23705,999,58062,-.21724E-4,-.9E-6,0
