{"fetched_at":"2026-06-08T18:26:03Z","count":4361,"tles":[{"name":"ARIANE 40+ R/B","line1":"1 23561U 95021B   26159.15784318  .00000260  00000+0  96555-4 0  9995","line2":"2 23561  98.4411 229.3630 0005887 222.8274 190.9169 14.39828487632264","category":"Other"},{"name":"SL-16 R/B","line1":"1 23343U 94074B   26159.08500119  .00000465  00000+0  68745-4 0  9994","line2":"2 23343  97.6994 186.1848 0005181 291.9630 131.0433 14.79494909700617","category":"Other"},{"name":"SL-8 R/B","line1":"1 21938U 92020B   26159.09717803  .00000060  00000+0  46084-4 0  9995","line2":"2 21938  82.9304  86.6088 0030216  47.1939 324.6705 13.75547985713565","category":"Other"},{"name":"OKEAN-3","line1":"1 21397U 91039A   26158.96528051  .00002465  00000+0  17012-3 0  9992","line2":"2 21397  82.5162 249.3236 0014615  30.1755 330.0311 15.05287367878610","category":"Other"},{"name":"SL-16 R/B","line1":"1 22285U 92093B   26159.12608792 -.00000118  00000+0 -36296-4 0  9991","line2":"2 22285  71.0201 174.4134 0004457 201.2170 158.8769 14.15464855725954","category":"Other"},{"name":"SL-16 R/B","line1":"1 23705U 95058B   26158.94578080 -.00000090  00000+0 -21724-4 0  9997","line2":"2 23705  71.0215 350.7622 0013394 332.9630  27.0794 14.15505213580623","category":"Other"},{"name":"COSMOS 2228","line1":"1 22286U 92094A   26159.13428225  .00002185  00000+0  18448-3 0  9997","line2":"2 22286  82.5170 150.7142 0017781   3.4683 356.6659 14.97554685789595","category":"Other"},{"name":"USA 81","line1":"1 21949U 92023A   26159.12367377  .00000179  00000+0  58715-4 0  9996","line2":"2 21949  85.0077  79.2381 0002733  92.7568 267.3938 14.32395794107739","category":"Military"},{"name":"SL-14 R/B","line1":"1 21423U 91042B   26159.17243693  .00000407  00000+0  48439-4 0  9998","line2":"2 21423  82.4922 135.3494 0015723 307.3054  52.6726 14.81896790866472","category":"Other"},{"name":"SL-16 R/B","line1":"1 22566U 93016B   26159.03452177  .00000088  00000+0  69830-4 0  9997","line2":"2 22566  71.0079  25.4318 0010835 196.7781 163.2985 14.15308871714954","category":"Other"},{"name":"COSMOS 2219","line1":"1 22219U 92076A   26159.13619418 -.00000031  00000+0  86150-5 0  9995","line2":"2 22219  71.0576 188.9935 0016171  58.9197 301.3510 14.14095576731165","category":"Other"},{"name":"COSMOS 2278","line1":"1 23087U 94023A   26158.91150778  .00000388  00000+0  22703-3 0  9993","line2":"2 23087  71.0541 346.3332 0010603 253.7139 106.2817 14.14392657657560","category":"Other"},{"name":"ERS-1","line1":"1 21574U 91050A   26159.05931654  .00000287  00000+0  10642-3 0  9992","line2":"2 21574  98.7799 179.5343 0030799 295.1450  64.6543 14.39511565828732","category":"Other"},{"name":"COSMOS 2242","line1":"1 22626U 93024A   26159.15645955  .00001673  00000+0  14324-3 0  9992","line2":"2 22626  82.5179 180.1828 0016257   7.2600 352.8854 14.96876951793927","category":"Other"},{"name":"SL-16 R/B","line1":"1 22220U 92076B   26159.00323513 -.00000203  00000+0 -76975-4 0  9996","line2":"2 22220  71.0007 358.1286 0014450 310.6399 161.6193 14.16872143734629","category":"Other"},{"name":"SL-16 R/B","line1":"1 23088U 94023B   26158.91739583  .00000179  00000+0  11707-3 0  9991","line2":"2 23088  70.9995 241.3984 0003357 196.3267 163.7748 14.15019357658859","category":"Other"},{"name":"INTERCOSMOS 25","line1":"1 21819U 91086A   26158.95048804  .00000657  00000+0  13079-3 0  9995","line2":"2 21819  82.6055 255.3989 1484364 282.3374  61.5916 12.12185586507626","category":"Other"},{"name":"SL-16 R/B","line1":"1 22803U 93059B   26159.17330426  .00000206  00000+0  12578-3 0  9993","line2":"2 22803  70.9883 180.3126 0014994  69.7255 290.5479 14.17244383692352","category":"Other"},{"name":"ARIANE 40 R/B","line1":"1 21610U 91050F   26159.10380478  .00000321  00000+0  10826-3 0  9994","line2":"2 21610  98.1879 207.8742 0003852 141.2771 218.8696 14.42952012832031","category":"Other"},{"name":"COSMOS 2221","line1":"1 22236U 92080A   26159.11245295  .00001582  00000+0  13681-3 0  9993","line2":"2 22236  82.5034 192.4589 0012672 245.6547 114.3353 14.96511725794313","category":"Other"},{"name":"SL-8 R/B","line1":"1 21876U 92008B   26159.18122346  .00000066  00000+0  52791-4 0  9992","line2":"2 21876  82.9268 200.4835 0033381 240.6443 178.1787 13.75974401721868","category":"Other"},{"name":"SL-16 R/B","line1":"1 23405U 94077B   26159.14642091 -.00000286  00000+0 -12156-3 0  9996","line2":"2 23405  70.9805 162.1829 0002627 332.7841  27.3144 14.15573467629033","category":"Other"},{"name":"SL-8 R/B","line1":"1 20775U 90078B   26159.07514155  .00016899  00000+0  47563-3 0  9996","line2":"2 20775  82.9015 169.8750 0352831  69.1271 294.7345 14.91976988822763","category":"Other"},{"name":"SL-14 R/B","line1":"1 20511U 90018B   26159.03277674  .00000432  00000+0  51159-4 0  9999","line2":"2 20511  82.5203 138.6641 0016870 150.0480 210.1703 14.82210433935964","category":"Other"},{"name":"HST","line1":"1 20580U 90037B   26158.29828937  .00006010  00000+0  18954-3 0  9990","line2":"2 20580  28.4712 148.1547 0001938  44.7656 315.3096 15.30642118787059","category":"Other"},{"name":"SL-8 R/B","line1":"1 21088U 91006B   26159.11898578  .00000049  00000+0  33177-4 0  9992","line2":"2 21088  82.9419 102.7794 0023284 138.7781 232.3484 13.77505208776529","category":"Other"},{"name":"SL-16 R/B","line1":"1 20625U 90046B   26159.11175692  .00000307  00000+0  18310-3 0  9994","line2":"2 20625  70.9982 108.0076 0014069 175.4568 184.6685 14.15021428861180","category":"Other"},{"name":"COSMOS 2151","line1":"1 21422U 91042A   26159.12332455  .00001406  00000+0  10952-3 0  9995","line2":"2 21422  82.4962 356.4290 0013720 111.0853 249.1840 15.00412803876750","category":"Other"}]}